0 ARIANE 2 DEB
1 28563U 88098L   13280.37638733  .00000130  00000-0 -60987-3 0  9180
2 28563 003.3014 158.5987 7210614 255.9750 342.8573 02.06941080 79327
0 ARIANE 2 DEB
1 28563U 88098L   13288.15601470 -.00000444  00000-0  10000-3 0  9192
2 28563 003.2868 155.8696 7211511 261.1051 018.6426 02.06947125 79488
